[{"OBJECT_NAME":"ONEWEB-0451","OBJECT_ID":"2022-012X","EPOCH":"2026-01-05T15:06:30.055392","MEAN_MOTION":13.1764928,"ECCENTRICITY":0.00019167,"INCLINATION":87.9094,"RA_OF_ASC_NODE":38.1459,"ARG_OF_PERICENTER":95.8793,"MEAN_ANOMALY":264.2557,"EPHEMERIS_TYPE":0,"CLASSIFICATION_TYPE":"U","NORAD_CAT_ID":51643,"ELEMENT_SET_NO":999,"REV_AT_EPOCH":19225,"BSTAR":-0.00013982798,"MEAN_MOTION_DOT":-4.1e-7,"MEAN_MOTION_DDOT":0},{"OBJECT_NAME":"ONEWEB-0452","OBJECT_ID":"2022-012Y","EPOCH":"2026-01-05T15:04:02.885952","MEAN_MOTION":13.17648097,"ECCENTRICITY":0.00020395,"INCLINATION":87.9083,"RA_OF_ASC_NODE":38.1989,"ARG_OF_PERICENTER":91.6334,"MEAN_ANOMALY":268.5031,"EPHEMERIS_TYPE":0,"CLASSIFICATION_TYPE":"U","NORAD_CAT_ID":51644,"ELEMENT_SET_NO":999,"REV_AT_EPOCH":19226,"BSTAR":0.00017845123,"MEAN_MOTION_DOT":8.2e-7,"MEAN_MOTION_DDOT":0},{"OBJECT_NAME":"ONEWEB-0456","OBJECT_ID":"2022-012AA","EPOCH":"2026-01-05T15:00:43.817760","MEAN_MOTION":13.10371418,"ECCENTRICITY":0.00016556,"INCLINATION":87.8795,"RA_OF_ASC_NODE":68.6404,"ARG_OF_PERICENTER":95.2672,"MEAN_ANOMALY":264.8645,"EPHEMERIS_TYPE":0,"CLASSIFICATION_TYPE":"U","NORAD_CAT_ID":51646,"ELEMENT_SET_NO":999,"REV_AT_EPOCH":18805,"BSTAR":0.002197155,"MEAN_MOTION_DOT":7.8e-6,"MEAN_MOTION_DDOT":0},{"OBJECT_NAME":"ONEWEB-0457","OBJECT_ID":"2022-012AB","EPOCH":"2026-01-05T14:27:15.585408","MEAN_MOTION":13.10376063,"ECCENTRICITY":0.00018865,"INCLINATION":87.8786,"RA_OF_ASC_NODE":68.6877,"ARG_OF_PERICENTER":115.8262,"MEAN_ANOMALY":244.306,"EPHEMERIS_TYPE":0,"CLASSIFICATION_TYPE":"U","NORAD_CAT_ID":51647,"ELEMENT_SET_NO":999,"REV_AT_EPOCH":18805,"BSTAR":0.00045606039,"MEAN_MOTION_DOT":1.72e-6,"MEAN_MOTION_DDOT":0},{"OBJECT_NAME":"ONEWEB-0458","OBJECT_ID":"2022-012AC","EPOCH":"2026-01-05T14:58:20.649504","MEAN_MOTION":13.10371917,"ECCENTRICITY":0.00019139,"INCLINATION":87.8788,"RA_OF_ASC_NODE":68.6592,"ARG_OF_PERICENTER":99.0329,"MEAN_ANOMALY":261.1015,"EPHEMERIS_TYPE":0,"CLASSIFICATION_TYPE":"U","NORAD_CAT_ID":51648,"ELEMENT_SET_NO":999,"REV_AT_EPOCH":18801,"BSTAR":0.0022280324,"MEAN_MOTION_DOT":7.9e-6,"MEAN_MOTION_DDOT":0},{"OBJECT_NAME":"ONEWEB-0461","OBJECT_ID":"2022-012AD","EPOCH":"2026-01-05T13:46:18.503328","MEAN_MOTION":13.1764955,"ECCENTRICITY":0.00017472,"INCLINATION":87.9097,"RA_OF_ASC_NODE":38.1719,"ARG_OF_PERICENTER":99.1762,"MEAN_ANOMALY":260.9567,"EPHEMERIS_TYPE":0,"CLASSIFICATION_TYPE":"U","NORAD_CAT_ID":51649,"ELEMENT_SET_NO":999,"REV_AT_EPOCH":19247,"BSTAR":6.6145727e-5,"MEAN_MOTION_DOT":3.9e-7,"MEAN_MOTION_DDOT":0},{"OBJECT_NAME":"ONEWEB-0463","OBJECT_ID":"2022-012AE","EPOCH":"2026-01-05T15:08:55.380192","MEAN_MOTION":13.17649294,"ECCENTRICITY":0.0001698,"INCLINATION":87.9082,"RA_OF_ASC_NODE":38.2,"ARG_OF_PERICENTER":97.2157,"MEAN_ANOMALY":262.9168,"EPHEMERIS_TYPE":0,"CLASSIFICATION_TYPE":"U","NORAD_CAT_ID":51650,"ELEMENT_SET_NO":999,"REV_AT_EPOCH":19226,"BSTAR":2.6554963e-5,"MEAN_MOTION_DOT":2.3e-7,"MEAN_MOTION_DDOT":0},{"OBJECT_NAME":"ONEWEB-0464","OBJECT_ID":"2022-012AF","EPOCH":"2026-01-05T14:53:34.023552","MEAN_MOTION":13.10372151,"ECCENTRICITY":0.00016034,"INCLINATION":87.8781,"RA_OF_ASC_NODE":68.6939,"ARG_OF_PERICENTER":91.5162,"MEAN_ANOMALY":268.6149,"EPHEMERIS_TYPE":0,"CLASSIFICATION_TYPE":"U","NORAD_CAT_ID":51651,"ELEMENT_SET_NO":999,"REV_AT_EPOCH":18803,"BSTAR":0.0018685886,"MEAN_MOTION_DOT":6.65e-6,"MEAN_MOTION_DDOT":0},{"OBJECT_NAME":"ONEWEB-0468","OBJECT_ID":"2022-012AG","EPOCH":"2026-01-05T15:03:07.519104","MEAN_MOTION":13.10370135,"ECCENTRICITY":0.00018212,"INCLINATION":87.8782,"RA_OF_ASC_NODE":68.6859,"ARG_OF_PERICENTER":94.3302,"MEAN_ANOMALY":265.8034,"EPHEMERIS_TYPE":0,"CLASSIFICATION_TYPE":"U","NORAD_CAT_ID":51652,"ELEMENT_SET_NO":999,"REV_AT_EPOCH":18801,"BSTAR":0.0015849724,"MEAN_MOTION_DOT":5.66e-6,"MEAN_MOTION_DDOT":0},{"OBJECT_NAME":"ONEWEB-0473","OBJECT_ID":"2022-012AH","EPOCH":"2026-01-05T14:41:36.866400","MEAN_MOTION":13.10374278,"ECCENTRICITY":0.00018518,"INCLINATION":87.8783,"RA_OF_ASC_NODE":68.6918,"ARG_OF_PERICENTER":98.496,"MEAN_ANOMALY":261.6378,"EPHEMERIS_TYPE":0,"CLASSIFICATION_TYPE":"U","NORAD_CAT_ID":51653,"ELEMENT_SET_NO":999,"REV_AT_EPOCH":18801,"BSTAR":0.001762138,"MEAN_MOTION_DOT":6.28e-6,"MEAN_MOTION_DDOT":0},{"OBJECT_NAME":"ONEWEB-0474","OBJECT_ID":"2022-012AJ","EPOCH":"2026-01-05T14:29:39.278112","MEAN_MOTION":13.10375722,"ECCENTRICITY":0.00017591,"INCLINATION":87.8796,"RA_OF_ASC_NODE":68.6621,"ARG_OF_PERICENTER":92.1188,"MEAN_ANOMALY":268.0141,"EPHEMERIS_TYPE":0,"CLASSIFICATION_TYPE":"U","NORAD_CAT_ID":51654,"ELEMENT_SET_NO":999,"REV_AT_EPOCH":18800,"BSTAR":0.00060705798,"MEAN_MOTION_DOT":2.25e-6,"MEAN_MOTION_DDOT":0},{"OBJECT_NAME":"ONEWEB-0475","OBJECT_ID":"2022-012AK","EPOCH":"2026-01-05T13:36:34.466112","MEAN_MOTION":13.17647976,"ECCENTRICITY":0.00022263,"INCLINATION":87.9085,"RA_OF_ASC_NODE":38.2036,"ARG_OF_PERICENTER":79.088,"MEAN_ANOMALY":281.0502,"EPHEMERIS_TYPE":0,"CLASSIFICATION_TYPE":"U","NORAD_CAT_ID":51655,"ELEMENT_SET_NO":999,"REV_AT_EPOCH":19227,"BSTAR":5.827145e-5,"MEAN_MOTION_DOT":3.6e-7,"MEAN_MOTION_DDOT":0},{"OBJECT_NAME":"ONEWEB-0490","OBJECT_ID":"2022-138A","EPOCH":"2026-01-05T10:21:43.211232","MEAN_MOTION":13.19725005,"ECCENTRICITY":0.0001697,"INCLINATION":87.9229,"RA_OF_ASC_NODE":337.3429,"ARG_OF_PERICENTER":75.6078,"MEAN_ANOMALY":284.5243,"EPHEMERIS_TYPE":0,"CLASSIFICATION_TYPE":"U","NORAD_CAT_ID":54113,"ELEMENT_SET_NO":999,"REV_AT_EPOCH":15536,"BSTAR":0.00010572003,"MEAN_MOTION_DOT":5.5e-7,"MEAN_MOTION_DDOT":0},{"OBJECT_NAME":"ONEWEB-0492","OBJECT_ID":"2022-138B","EPOCH":"2026-01-05T14:36:26.902944","MEAN_MOTION":13.19724589,"ECCENTRICITY":0.00015665,"INCLINATION":87.9219,"RA_OF_ASC_NODE":337.3208,"ARG_OF_PERICENTER":77.4052,"MEAN_ANOMALY":282.7256,"EPHEMERIS_TYPE":0,"CLASSIFICATION_TYPE":"U","NORAD_CAT_ID":54114,"ELEMENT_SET_NO":999,"REV_AT_EPOCH":15539,"BSTAR":0.00012328633,"MEAN_MOTION_DOT":6.2e-7,"MEAN_MOTION_DDOT":0},{"OBJECT_NAME":"ONEWEB-0495","OBJECT_ID":"2022-138C","EPOCH":"2026-01-05T10:26:16.241280","MEAN_MOTION":13.19725943,"ECCENTRICITY":0.00018093,"INCLINATION":87.9216,"RA_OF_ASC_NODE":337.3584,"ARG_OF_PERICENTER":59.6722,"MEAN_ANOMALY":300.4589,"EPHEMERIS_TYPE":0,"CLASSIFICATION_TYPE":"U","NORAD_CAT_ID":54115,"ELEMENT_SET_NO":999,"REV_AT_EPOCH":15535,"BSTAR":5.4686918e-5,"MEAN_MOTION_DOT":3.5e-7,"MEAN_MOTION_DDOT":0},{"OBJECT_NAME":"ONEWEB-0497","OBJECT_ID":"2022-138D","EPOCH":"2026-01-05T10:44:27.970080","MEAN_MOTION":13.19725703,"ECCENTRICITY":0.00017213,"INCLINATION":87.9226,"RA_OF_ASC_NODE":337.3434,"ARG_OF_PERICENTER":78.7453,"MEAN_ANOMALY":281.3873,"EPHEMERIS_TYPE":0,"CLASSIFICATION_TYPE":"U","NORAD_CAT_ID":54116,"ELEMENT_SET_NO":999,"REV_AT_EPOCH":15534,"BSTAR":-0.00026833594,"MEAN_MOTION_DOT":-9.4e-7,"MEAN_MOTION_DDOT":0},{"OBJECT_NAME":"ONEWEB-0499","OBJECT_ID":"2022-138E","EPOCH":"2026-01-05T10:20:33.084672","MEAN_MOTION":13.19727831,"ECCENTRICITY":0.00019268,"INCLINATION":87.9218,"RA_OF_ASC_NODE":337.3591,"ARG_OF_PERICENTER":77.8977,"MEAN_ANOMALY":282.2372,"EPHEMERIS_TYPE":0,"CLASSIFICATION_TYPE":"U","NORAD_CAT_ID":54117,"ELEMENT_SET_NO":999,"REV_AT_EPOCH":15535,"BSTAR":8.546809e-6,"MEAN_MOTION_DOT":1.6e-7,"MEAN_MOTION_DDOT":0}]
