ONEWEB-0451             
1 51643U 22012X   26005.62951453 -.00000041  00000+0 -13983-3 0  9997
2 51643  87.9094  38.1459 0001916  95.8793 264.2557 13.17649280192257
ONEWEB-0452             
1 51644U 22012Y   26005.62781118  .00000082  00000+0  17845-3 0  9991
2 51644  87.9083  38.1989 0002039  91.6334 268.5031 13.17648097192266
ONEWEB-0456             
1 51646U 22012AA  26005.62550715  .00000780  00000+0  21972-2 0  9990
2 51646  87.8795  68.6404 0001655  95.2672 264.8645 13.10371418188050
ONEWEB-0457             
1 51647U 22012AB  26005.60226372  .00000172  00000+0  45606-3 0  9994
2 51647  87.8786  68.6877 0001886 115.8262 244.3060 13.10376063188050
ONEWEB-0458             
1 51648U 22012AC  26005.62385011  .00000790  00000+0  22280-2 0  9991
2 51648  87.8788  68.6592 0001913  99.0329 261.1015 13.10371917188011
ONEWEB-0461             
1 51649U 22012AD  26005.57382527  .00000039  00000+0  66146-4 0  9992
2 51649  87.9097  38.1719 0001747  99.1762 260.9567 13.17649550192478
ONEWEB-0463             
1 51650U 22012AE  26005.63119653  .00000023  00000+0  26555-4 0  9992
2 51650  87.9082  38.2000 0001698  97.2157 262.9168 13.17649294192261
ONEWEB-0464             
1 51651U 22012AF  26005.62053268  .00000665  00000+0  18686-2 0  9997
2 51651  87.8781  68.6939 0001603  91.5162 268.6149 13.10372151188034
ONEWEB-0468             
1 51652U 22012AG  26005.62717036  .00000566  00000+0  15850-2 0  9998
2 51652  87.8782  68.6859 0001821  94.3302 265.8034 13.10370135188016
ONEWEB-0473             
1 51653U 22012AH  26005.61223225  .00000628  00000+0  17621-2 0  9997
2 51653  87.8783  68.6918 0001851  98.4960 261.6378 13.10374278188019
ONEWEB-0474             
1 51654U 22012AJ  26005.60392683  .00000225  00000+0  60706-3 0  9998
2 51654  87.8796  68.6621 0001759  92.1188 268.0141 13.10375722188008
ONEWEB-0475             
1 51655U 22012AK  26005.56706558  .00000036  00000+0  58271-4 0  9999
2 51655  87.9085  38.2036 0002226  79.0880 281.0502 13.17647976192277
ONEWEB-0490             
1 54113U 22138A   26005.43175013  .00000055  00000+0  10572-3 0  9994
2 54113  87.9229 337.3429 0001697  75.6078 284.5243 13.19725005155361
ONEWEB-0492             
1 54114U 22138B   26005.60864471  .00000062  00000+0  12329-3 0  9997
2 54114  87.9219 337.3208 0001566  77.4052 282.7256 13.19724589155396
ONEWEB-0495             
1 54115U 22138C   26005.43491020  .00000035  00000+0  54687-4 0  9999
2 54115  87.9216 337.3584 0001809  59.6722 300.4589 13.19725943155355
ONEWEB-0497             
1 54116U 22138D   26005.44754595 -.00000094  00000+0 -26834-3 0  9999
2 54116  87.9226 337.3434 0001721  78.7453 281.3873 13.19725703155343
ONEWEB-0499             
1 54117U 22138E   26005.43093848  .00000016  00000+0  85468-5 0  9998
2 54117  87.9218 337.3591 0001926  77.8977 282.2372 13.19727831155356
